start=new Date('2021-11-06T00:00:00.000Z').valueOf();
sats=[{"TLE_LINE2":"2 48293  53.0548 356.1650 0001413  71.8181 288.2961 15.06428583 29441","OBJECT_TYPE":"PAYLOAD","EPOCH":"2021-11-05T20:46:40.579680","ECCENTRICITY":"0.00014130","ELEMENT_SET_NO":"999","REF_FRAME":"TEME","MEAN_MOTION_DDOT":"0.0000000000000","EPHEMERIS_TYPE":"0","MEAN_MOTION_DOT":"0.00006753","MEAN_ELEMENT_THEORY":"SGP4","INCLINATION":"53.0548","NORAD_CAT_ID":"48293","REV_AT_EPOCH":"2944","ARG_OF_PERICENTER":"71.8181","PERIOD":"95.590","MEAN_MOTION":"15.06428583","RA_OF_ASC_NODE":"356.1650","CENTER_NAME":"EARTH","OBJECT_NAME":"STARLINK-2550","GP_ID":"189046196","LAUNCH_DATE":"2021-04-29","SEMIMAJOR_AXIS":"6925.261","TLE_LINE1":"1 48293U 21036T   21309.86574745  .00006753  00000-0  47142-3 0  9991","APOAPSIS":"548.104","DECAY_DATE":null,"MEAN_ANOMALY":"288.2961","FILE":"3204412","RCS_SIZE":"LARGE","CLASSIFICATION_TYPE":"U","BSTAR":"0.00047142000000","TIME_SYSTEM":"UTC","OBJECT_ID":"2021-036T","PERIAPSIS":"546.147","COUNTRY_CODE":"US","SITE":"AFETR"},{"BSTAR":"-0.00015719000000","CLASSIFICATION_TYPE":"U","MEAN_ANOMALY":"280.8808","RCS_SIZE":"LARGE","FILE":"3204412","SITE":"AFETR","COUNTRY_CODE":"US","PERIAPSIS":"546.120","TIME_SYSTEM":"UTC","OBJECT_ID":"2021-036U","LAUNCH_DATE":"2021-04-29","GP_ID":"189046455","OBJECT_NAME":"STARLINK-2533","CENTER_NAME":"EARTH","DECAY_DATE":null,"SEMIMAJOR_AXIS":"6925.429","TLE_LINE1":"1 48294U 21036U   21309.86209919 -.00002620  00000-0 -15719-3 0  9996","APOAPSIS":"548.468","REV_AT_EPOCH":"2944","NORAD_CAT_ID":"48294","MEAN_ELEMENT_THEORY":"SGP4","INCLINATION":"53.0564","MEAN_MOTION":"15.06373813","RA_OF_ASC_NODE":"356.1948","ARG_OF_PERICENTER":"79.2372","PERIOD":"95.594","EPOCH":"2021-11-05T20:41:25.370016","ECCENTRICITY":"0.00016950","TLE_LINE2":"2 48294  53.0564 356.1948 0001695  79.2372 280.8808 15.06373813 29449","OBJECT_TYPE":"PAYLOAD","MEAN_MOTION_DOT":"-0.00002620","EPHEMERIS_TYPE":"0","REF_FRAME":"TEME","MEAN_MOTION_DDOT":"0.0000000000000","ELEMENT_SET_NO":"999"},{"REV_AT_EPOCH":"2944","NORAD_CAT_ID":"48295","MEAN_ELEMENT_THEORY":"SGP4","INCLINATION":"53.0532","MEAN_MOTION":"15.06430050","RA_OF_ASC_NODE":"356.2131","PERIOD":"95.590","ARG_OF_PERICENTER":"73.6610","EPOCH":"2021-11-05T20:36:03.783168","ECCENTRICITY":"0.00012050","OBJECT_TYPE":"PAYLOAD","TLE_LINE2":"2 48295  53.0532 356.2131 0001205  73.6610 286.4511 15.06430050 29440","MEAN_MOTION_DOT":"0.00006995","EPHEMERIS_TYPE":"0","REF_FRAME":"TEME","MEAN_MOTION_DDOT":"0.0000000000000","ELEMENT_SET_NO":"999","BSTAR":"0.00048764000000","CLASSIFICATION_TYPE":"U","MEAN_ANOMALY":"286.4511","FILE":"3204412","RCS_SIZE":"LARGE","SITE":"AFETR","COUNTRY_CODE":"US","PERIAPSIS":"546.287","TIME_SYSTEM":"UTC","OBJECT_ID":"2021-036V","LAUNCH_DATE":"2021-04-29","GP_ID":"189047183","OBJECT_NAME":"STARLINK-2535","CENTER_NAME":"EARTH","DECAY_DATE":null,"SEMIMAJOR_AXIS":"6925.256","APOAPSIS":"547.956","TLE_LINE1":"1 48295U 21036V   21309.85837712  .00006995  00000-0  48764-3 0  9997"},{"ARG_OF_PERICENTER":"77.9835","PERIOD":"95.589","RA_OF_ASC_NODE":"356.2266","MEAN_MOTION":"15.06446786","NORAD_CAT_ID":"48296","REV_AT_EPOCH":"2944","INCLINATION":"53.0539","MEAN_ELEMENT_THEORY":"SGP4","REF_FRAME":"TEME","MEAN_MOTION_DDOT":"0.0000000000000","EPHEMERIS_TYPE":"0","MEAN_MOTION_DOT":"0.00009150","ELEMENT_SET_NO":"999","TLE_LINE2":"2 48296  53.0539 356.2266 0001146  77.9835 282.1282 15.06446786 29448","OBJECT_TYPE":"PAYLOAD","ECCENTRICITY":"0.00011460","EPOCH":"2021-11-05T20:30:44.976672","SITE":"AFETR","COUNTRY_CODE":"US","OBJECT_ID":"2021-036W","TIME_SYSTEM":"UTC","PERIAPSIS":"546.277","CLASSIFICATION_TYPE":"U","BSTAR":"0.00063156000000","FILE":"3204412","RCS_SIZE":"LARGE","MEAN_ANOMALY":"282.1282","DECAY_DATE":null,"TLE_LINE1":"1 48296U 21036W   21309.85468723  .00009150  00000-0  63156-3 0  9998","APOAPSIS":"547.864","SEMIMAJOR_AXIS":"6925.205","GP_ID":"189045953","LAUNCH_DATE":"2021-04-29","CENTER_NAME":"EARTH","OBJECT_NAME":"STARLINK-2546"},{"ECCENTRICITY":"0.00012740","EPOCH":"2021-11-05T20:25:26.456160","OBJECT_TYPE":"PAYLOAD","TLE_LINE2":"2 48297  53.0536 356.2452 0001274  73.6595 286.4534 15.06441572 29446","EPHEMERIS_TYPE":"0","MEAN_MOTION_DOT":"0.00005997","MEAN_MOTION_DDOT":"0.0000000000000","REF_FRAME":"TEME","ELEMENT_SET_NO":"999","REV_AT_EPOCH":"2944","NORAD_CAT_ID":"48297","INCLINATION":"53.0536","MEAN_ELEMENT_THEORY":"SGP4","MEAN_MOTION":"15.06441572","RA_OF_ASC_NODE":"356.2452","PERIOD":"95.590","ARG_OF_PERICENTER":"73.6595","LAUNCH_DATE":"2021-04-29","GP_ID":"189046696","OBJECT_NAME":"STARLINK-2544","CENTER_NAME":"EARTH","DECAY_DATE":null,"APOAPSIS":"547.968","TLE_LINE1":"1 48297U 21036X   21309.85100065  .00005997  00000-0  42065-3 0  9992","SEMIMAJOR_AXIS":"6925.221","BSTAR":"0.00042065000000","CLASSIFICATION_TYPE":"U","FILE":"3204412","RCS_SIZE":"LARGE","MEAN_ANOMALY":"286.4534","COUNTRY_CODE":"US","SITE":"AFETR","PERIAPSIS":"546.204","TIME_SYSTEM":"UTC","OBJECT_ID":"2021-036X"},{"BSTAR":"0.00063644000000","CLASSIFICATION_TYPE":"U","RCS_SIZE":"LARGE","FILE":"3204412","MEAN_ANOMALY":"278.1074","SITE":"AFETR","COUNTRY_CODE":"US","PERIAPSIS":"546.190","TIME_SYSTEM":"UTC","OBJECT_ID":"2021-036Y","LAUNCH_DATE":"2021-04-29","GP_ID":"189046955","OBJECT_NAME":"STARLINK-2559","CENTER_NAME":"EARTH","DECAY_DATE":null,"TLE_LINE1":"1 48298U 21036Y   21309.64828322  .00009221  00000-0  63644-3 0  9993","APOAPSIS":"547.984","SEMIMAJOR_AXIS":"6925.222","REV_AT_EPOCH":"2941","NORAD_CAT_ID":"48298","INCLINATION":"53.0543","MEAN_ELEMENT_THEORY":"SGP4","RA_OF_ASC_NODE":"357.1533","MEAN_MOTION":"15.06441388","ARG_OF_PERICENTER":"82.0062","PERIOD":"95.590","ECCENTRICITY":"0.00012950","EPOCH":"2021-11-05T15:33:31.670208","TLE_LINE2":"2 48298  53.0543 357.1533 0001295  82.0062 278.1074 15.06441388 29410","OBJECT_TYPE":"PAYLOAD","MEAN_MOTION_DOT":"0.00009221","EPHEMERIS_TYPE":"0","REF_FRAME":"TEME","MEAN_MOTION_DDOT":"0.0000000000000","ELEMENT_SET_NO":"999"},{"MEAN_ANOMALY":"275.6460","RCS_SIZE":"LARGE","FILE":"3204412","CLASSIFICATION_TYPE":"U","BSTAR":"-0.00019709000000","TIME_SYSTEM":"UTC","OBJECT_ID":"2021-036Z","PERIAPSIS":"546.578","SITE":"AFETR","COUNTRY_CODE":"US","CENTER_NAME":"EARTH","OBJECT_NAME":"STARLINK-2557","GP_ID":"189047559","LAUNCH_DATE":"2021-04-29","SEMIMAJOR_AXIS":"6925.389","APOAPSIS":"547.930","TLE_LINE1":"1 48299U 21036Z   21309.84366095 -.00003215  00000-0 -19709-3 0  9992","DECAY_DATE":null,"MEAN_ELEMENT_THEORY":"SGP4","INCLINATION":"53.0578","NORAD_CAT_ID":"48299","REV_AT_EPOCH":"2944","ARG_OF_PERICENTER":"84.4640","PERIOD":"95.593","RA_OF_ASC_NODE":"356.2639","MEAN_MOTION":"15.06386700","OBJECT_TYPE":"PAYLOAD","TLE_LINE2":"2 48299  53.0578 356.2639 0000976  84.4640 275.6460 15.06386700 29449","EPOCH":"2021-11-05T20:14:52.306080","ECCENTRICITY":"0.00009760","ELEMENT_SET_NO":"999","MEAN_MOTION_DDOT":"0.0000000000000","REF_FRAME":"TEME","MEAN_MOTION_DOT":"-0.00003215","EPHEMERIS_TYPE":"0"},{"REF_FRAME":"TEME","MEAN_MOTION_DDOT":"0.0000000000000","EPHEMERIS_TYPE":"0","MEAN_MOTION_DOT":"0.00005370","ELEMENT_SET_NO":"999","TLE_LINE2":"2 48300  53.0572   6.0089 0001295  77.7184 282.3950 15.06427396 29310","OBJECT_TYPE":"PAYLOAD","EPOCH":"2021-11-05T21:38:25.780992","ECCENTRICITY":"0.00012950","ARG_OF_PERICENTER":"77.7184","PERIOD":"95.590","MEAN_MOTION":"15.06427396","RA_OF_ASC_NODE":"6.0089","NORAD_CAT_ID":"48300","REV_AT_EPOCH":"2931","MEAN_ELEMENT_THEORY":"SGP4","INCLINATION":"53.0572","DECAY_DATE":null,"SEMIMAJOR_AXIS":"6925.265","APOAPSIS":"548.026","TLE_LINE1":"1 48300U 21036AA  21309.90168728  .00005370  00000-0  37886-3 0  9993","GP_ID":"189045454","LAUNCH_DATE":"2021-04-29","CENTER_NAME":"EARTH","OBJECT_NAME":"STARLINK-2538","SITE":"AFETR","COUNTRY_CODE":"US","OBJECT_ID":"2021-036AA","TIME_SYSTEM":"UTC","PERIAPSIS":"546.233","CLASSIFICATION_TYPE":"U","BSTAR":"0.00037886000000","MEAN_ANOMALY":"282.3950","FILE":"3204412","RCS_SIZE":"LARGE"},{"TLE_LINE2":"2 48301  53.0546   6.0171 0001299  72.2300 287.8831 15.06425319 29308","OBJECT_TYPE":"PAYLOAD","ECCENTRICITY":"0.00012990","EPOCH":"2021-11-05T21:33:07.117920","ELEMENT_SET_NO":"999","MEAN_MOTION_DDOT":"0.0000000000000","REF_FRAME":"TEME","MEAN_MOTION_DOT":"0.00005438","EPHEMERIS_TYPE":"0","INCLINATION":"53.0546","MEAN_ELEMENT_THEORY":"SGP4","NORAD_CAT_ID":"48301","REV_AT_EPOCH":"2930","ARG_OF_PERICENTER":"72.2300","PERIOD":"95.591","RA_OF_ASC_NODE":"6.0171","MEAN_MOTION":"15.06425319","CENTER_NAME":"EARTH","OBJECT_NAME":"STARLINK-2537","GP_ID":"189046197","LAUNCH_DATE":"2021-04-29","TLE_LINE1":"1 48301U 21036AB  21309.89799905  .00005438  00000-0  38343-3 0  9993","APOAPSIS":"548.036","SEMIMAJOR_AXIS":"6925.271","DECAY_DATE":null,"FILE":"3204412","RCS_SIZE":"LARGE","MEAN_ANOMALY":"287.8831","CLASSIFICATION_TYPE":"U","BSTAR":"0.00038343000000","TIME_SYSTEM":"UTC","OBJECT_ID":"2021-036AB","PERIAPSIS":"546.236","SITE":"AFETR","COUNTRY_CODE":"US"},{"DECAY_DATE":null,"SEMIMAJOR_AXIS":"6925.233","TLE_LINE1":"1 48302U 21036AC  21309.89431549  .00003589  00000-0  25945-3 0  9990","APOAPSIS":"548.393","LAUNCH_DATE":"2021-04-29","GP_ID":"189046456","OBJECT_NAME":"STARLINK-2556","CENTER_NAME":"EARTH","SITE":"AFETR","COUNTRY_CODE":"US","PERIAPSIS":"545.803","TIME_SYSTEM":"UTC","OBJECT_ID":"2021-036AC","BSTAR":"0.00025945000000","CLASSIFICATION_TYPE":"U","MEAN_ANOMALY":"308.9315","RCS_SIZE":"LARGE","FILE":"3204412","MEAN_MOTION_DOT":"0.00003589","EPHEMERIS_TYPE":"0","MEAN_MOTION_DDOT":"0.0000000000000","REF_FRAME":"TEME","ELEMENT_SET_NO":"999","EPOCH":"2021-11-05T21:27:48.858336","ECCENTRICITY":"0.00018700","TLE_LINE2":"2 48302  53.0570   6.0319 0001870  51.1841 308.9315 15.06437704 29304","OBJECT_TYPE":"PAYLOAD","MEAN_MOTION":"15.06437704","RA_OF_ASC_NODE":"6.0319","PERIOD":"95.590","ARG_OF_PERICENTER":"51.1841","REV_AT_EPOCH":"2930","NORAD_CAT_ID":"48302","MEAN_ELEMENT_THEORY":"SGP4","INCLINATION":"53.0570"}];
